0 TITAN 3C TRANSTAGE DEB
1 05998U 65108T   13293.06674501 -.00000032  00000-0  10000-3 0   281
2 05998 026.3295 124.8748 6606871 296.1506 011.7432 02.97866704103705
0 TITAN 3C TRANSTAGE DEB
1 05998U 65108T   13294.37697014  .00000460  00000-0  30570-2 0   298
2 05998 026.3360 124.2829 6605098 297.1563 336.7078 02.97867260103744
